{"type": "FeatureCollection", "features": [ {"type": "Feature", "properties": {"norad_id": 29892, "name": "FENGYUN 1C DEB", "group": "fengyun-1c-debris", "lat": 31.347933711346364, "lon": -32.594955770455684, "alt_km": 866.7472698896299, "timestamp": "2025-12-19T18:58:41.860056+00:00", "meta": {"OBJECT_NAME": "FENGYUN 1C DEB", "OBJECT_ID": "1999-025GN", "EPOCH": "2025-12-18T22:43:48.792000", "MEAN_MOTION": 14.32300676, "ECCENTRICITY": 0.01918425, "INCLINATION": 99.1802, "RA_OF_ASC_NODE": 140.8586, "ARG_OF_PERICENTER": 279.3836, "MEAN_ANOMALY": 202.6726, "EPHEMERIS_TYPE": 0, "CLASSIFICATION_TYPE": "U", "NORAD_CAT_ID": 29892, "ELEMENT_SET_NO": 999, "REV_AT_EPOCH": 96738, "BSTAR": 0.0024877447, "MEAN_MOTION_DOT": 8.185e-05, "MEAN_MOTION_DDOT": 0}, "tle": {"line1": "1 29892U 99025GN  25352.94709250  .00008185  00000+0  24877-2 0  9999", "line2": "2 29892  99.1802 140.8586 0191842 279.3836 202.6726 14.32300676967386"}}, "geometry": {"type": "Point", "coordinates": [-32.594955770455684, 31.347933711346364]}}, {"type": "Feature", "properties": {"norad_id": 29893, "name": "FENGYUN 1C DEB", "group": "fengyun-1c-debris", "lat": 12.58061091598627, "lon": 87.25430883065167, "alt_km": 1032.111315033675, "timestamp": "2025-12-19T18:58:41.860066+00:00", "meta": {"OBJECT_NAME": "FENGYUN 1C DEB", "OBJECT_ID": "1999-025GP", "EPOCH": "2025-12-18T20:52:19.419744", "MEAN_MOTION": 13.79464282, "ECCENTRICITY": 0.01738555, "INCLINATION": 98.5533, "RA_OF_ASC_NODE": 88.3464, "ARG_OF_PERICENTER": 136.8957, "MEAN_ANOMALY": 345.9256, "EPHEMERIS_TYPE": 0, "CLASSIFICATION_TYPE": "U", "NORAD_CAT_ID": 29893, "ELEMENT_SET_NO": 999, "REV_AT_EPOCH": 95224, "BSTAR": 0.00016222946, "MEAN_MOTION_DOT": 1.5e-06, "MEAN_MOTION_DDOT": 0}, "tle": {"line1": "1 29893U 99025GP  25352.86966921  .00000150  00000+0  16223-3 0  9992", "line2": "2 29893  98.5533  88.3464 0173855 136.8957 345.9256 13.79464282952249"}}, "geometry": {"type": "Point", "coordinates": [87.25430883065167, 12.58061091598627]}}, {"type": "Feature", "properties": {"norad_id": 29894, "name": "FENGYUN 1C DEB", "group": "fengyun-1c-debris", "lat": 78.37893399288188, "lon": -6.245668410303595, "alt_km": 884.0834378571417, "timestamp": "2025-12-19T18:58:41.860076+00:00", "meta": {"OBJECT_NAME": "FENGYUN 1C DEB", "OBJECT_ID": "1999-025GQ", "EPOCH": "2025-12-19T03:04:10.659360", "MEAN_MOTION": 13.80980087, "ECCENTRICITY": 0.01681889, "INCLINATION": 99.4852, "RA_OF_ASC_NODE": 47.4708, "ARG_OF_PERICENTER": 28.1785, "MEAN_ANOMALY": 359.8084, "EPHEMERIS_TYPE": 0, "CLASSIFICATION_TYPE": "U", "NORAD_CAT_ID": 29894, "ELEMENT_SET_NO": 999, "REV_AT_EPOCH": 95165, "BSTAR": 0.00045105588, "MEAN_MOTION_DOT": 4.85e-06, "MEAN_MOTION_DDOT": 0}, "tle": {"line1": "1 29894U 99025GQ  25353.12790115  .00000485  00000+0  45106-3 0  9996", "line2": "2 29894  99.4852  47.4708 0168188  28.1785 359.8084 13.80980087951651"}}, "geometry": {"type": "Point", "coordinates": [-6.245668410303595, 78.37893399288188]}}, {"type": "Feature", "properties": {"norad_id": 29895, "name": "FENGYUN 1C DEB", "group": "fengyun-1c-debris", "lat": 26.025418394724998, "lon": -72.25114584368791, "alt_km": 1078.3060524483362, "timestamp": "2025-12-19T18:58:41.860087+00:00", "meta": {"OBJECT_NAME": "FENGYUN 1C DEB", "OBJECT_ID": "1999-025GR", "EPOCH": "2025-12-19T06:27:11.003904", "MEAN_MOTION": 14.08294223, "ECCENTRICITY": 0.02995317, "INCLINATION": 99.8852, "RA_OF_ASC_NODE": 102.2925, "ARG_OF_PERICENTER": 325.802, "MEAN_ANOMALY": 63.7413, "EPHEMERIS_TYPE": 0, "CLASSIFICATION_TYPE": "U", "NORAD_CAT_ID": 29895, "ELEMENT_SET_NO": 999, "REV_AT_EPOCH": 95616, "BSTAR": 0.0014486829, "MEAN_MOTION_DOT": 3.685e-05, "MEAN_MOTION_DDOT": 0}, "tle": {"line1": "1 29895U 99025GR  25353.26887736  .00003685  00000+0  14487-2 0  9990", "line2": "2 29895  99.8852 102.2925 0299531 325.8020  63.7413 14.08294223956162"}}, "geometry": {"type": "Point", "coordinates": [-72.25114584368791, 26.025418394724998]}}, {"type": "Feature", "properties": {"norad_id": 29896, "name": "FENGYUN 1C DEB", "group": "fengyun-1c-debris", "lat": -35.29145759546456, "lon": 58.574106228704004, "alt_km": 1138.654329452731, "timestamp": "2025-12-19T18:58:41.860097+00:00", "meta": {"OBJECT_NAME": "FENGYUN 1C DEB", "OBJECT_ID": "1999-025GS", "EPOCH": "2025-12-19T06:14:46.809600", "MEAN_MOTION": 13.65375237, "ECCENTRICITY": 0.0239964, "INCLINATION": 99.4225, "RA_OF_ASC_NODE": 244.8083, "ARG_OF_PERICENTER": 85.1485, "MEAN_ANOMALY": 42.3134, "EPHEMERIS_TYPE": 0, "CLASSIFICATION_TYPE": "U", "NORAD_CAT_ID": 29896, "ELEMENT_SET_NO": 999, "REV_AT_EPOCH": 94131, "BSTAR": 0.00057128511, "MEAN_MOTION_DOT": 5.25e-06, "MEAN_MOTION_DDOT": 0}, "tle": {"line1": "1 29896U 99025GS  25353.26026400  .00000525  00000+0  57129-3 0  9995", "line2": "2 29896  99.4225 244.8083 0239964  85.1485  42.3134 13.65375237941317"}}, "geometry": {"type": "Point", "coordinates": [58.574106228704004, -35.29145759546456]}}, {"type": "Feature", "properties": {"norad_id": 29897, "name": "FENGYUN 1C DEB", "group": "fengyun-1c-debris", "lat": -71.49107533581287, "lon": -115.81447014469431, "alt_km": 1266.6134587272209, "timestamp": "2025-12-19T18:58:41.860108+00:00", "meta": {"OBJECT_NAME": "FENGYUN 1C DEB", "OBJECT_ID": "1999-025GT", "EPOCH": "2025-12-17T14:25:33.441600", "MEAN_MOTION": 13.57200283, "ECCENTRICITY": 0.02966784, "INCLINATION": 98.6298, "RA_OF_ASC_NODE": 215.2843, "ARG_OF_PERICENTER": 126.0243, "MEAN_ANOMALY": 266.6756, "EPHEMERIS_TYPE": 0, "CLASSIFICATION_TYPE": "U", "NORAD_CAT_ID": 29897, "ELEMENT_SET_NO": 999, "REV_AT_EPOCH": 93006, "BSTAR": 0.0017231343, "MEAN_MOTION_DOT": 1.601e-05, "MEAN_MOTION_DDOT": 0}, "tle": {"line1": "1 29897U 99025GT  25351.60108150  .00001601  00000+0  17231-2 0  9990", "line2": "2 29897  98.6298 215.2843 0296678 126.0243 266.6756 13.57200283930067"}}, "geometry": {"type": "Point", "coordinates": [-115.81447014469431, -71.49107533581287]}}, {"type": "Feature", "properties": {"norad_id": 29898, "name": "FENGYUN 1C DEB", "group": "fengyun-1c-debris", "lat": -52.30762135738788, "lon": -4.0718011078786756, "alt_km": 1228.1894480395267, "timestamp": "2025-12-19T18:58:41.860118+00:00", "meta": {"OBJECT_NAME": "FENGYUN 1C DEB", "OBJECT_ID": "1999-025GU", "EPOCH": "2025-12-18T22:22:41.184768", "MEAN_MOTION": 13.70342046, "ECCENTRICITY": 0.04270107, "INCLINATION": 98.2224, "RA_OF_ASC_NODE": 344.4061, "ARG_OF_PERICENTER": 172.5539, "MEAN_ANOMALY": 218.916, "EPHEMERIS_TYPE": 0, "CLASSIFICATION_TYPE": "U", "NORAD_CAT_ID": 29898, "ELEMENT_SET_NO": 999, "REV_AT_EPOCH": 93246, "BSTAR": 0.0012720259, "MEAN_MOTION_DOT": 2.111e-05, "MEAN_MOTION_DDOT": 0}, "tle": {"line1": "1 29898U 99025GU  25352.93242112  .00002111  00000+0  12720-2 0  9990", "line2": "2 29898  98.2224 344.4061 0427010 172.5539 218.9160 13.70342046932464"}}, "geometry": {"type": "Point", "coordinates": [-4.0718011078786756, -52.30762135738788]}}, {"type": "Feature", "properties": {"norad_id": 29899, "name": "FENGYUN 1C DEB", "group": "fengyun-1c-debris", "lat": -55.723804991459055, "lon": -44.65273009047859, "alt_km": 1389.7460096504255, "timestamp": "2025-12-19T18:58:41.860128+00:00", "meta": {"OBJECT_NAME": "FENGYUN 1C DEB", "OBJECT_ID": "1999-025GV", "EPOCH": "2025-12-18T22:04:10.309728", "MEAN_MOTION": 13.37494251, "ECCENTRICITY": 0.03535016, "INCLINATION": 98.6618, "RA_OF_ASC_NODE": 147.5275, "ARG_OF_PERICENTER": 63.477, "MEAN_ANOMALY": 300.2151, "EPHEMERIS_TYPE": 0, "CLASSIFICATION_TYPE": "U", "NORAD_CAT_ID": 29899, "ELEMENT_SET_NO": 999, "REV_AT_EPOCH": 92167, "BSTAR": 0.00016012299, "MEAN_MOTION_DOT": 8.8e-07, "MEAN_MOTION_DDOT": 0}, "tle": {"line1": "1 29899U 99025GV  25352.91956377  .00000088  00000+0  16012-3 0  9994", "line2": "2 29899  98.6618 147.5275 0353501  63.4770 300.2151 13.37494251921678"}}, "geometry": {"type": "Point", "coordinates": [-44.65273009047859, -55.723804991459055]}}, {"type": "Feature", "properties": {"norad_id": 29901, "name": "FENGYUN 1C DEB", "group": "fengyun-1c-debris", "lat": -37.553716463902155, "lon": 170.39702338092678, "alt_km": 967.5396959982418, "timestamp": "2025-12-19T18:58:41.860139+00:00", "meta": {"OBJECT_NAME": "FENGYUN 1C DEB", "OBJECT_ID": "1999-025GX", "EPOCH": "2025-12-18T23:59:47.357952", "MEAN_MOTION": 13.33257383, "ECCENTRICITY": 0.03791739, "INCLINATION": 98.7446, "RA_OF_ASC_NODE": 162.9249, "ARG_OF_PERICENTER": 269.693, "MEAN_ANOMALY": 214.6827, "EPHEMERIS_TYPE": 0, "CLASSIFICATION_TYPE": "U", "NORAD_CAT_ID": 29901, "ELEMENT_SET_NO": 999, "REV_AT_EPOCH": 92002, "BSTAR": 0.00036757366, "MEAN_MOTION_DOT": 2.32e-06, "MEAN_MOTION_DDOT": 0}, "tle": {"line1": "1 29901U 99025GX  25352.99985368  .00000232  00000+0  36757-3 0  9997", "line2": "2 29901  98.7446 162.9249 0379173 269.6930 214.6827 13.33257383920020"}}, "geometry": {"type": "Point", "coordinates": [170.39702338092678, -37.553716463902155]}}, {"type": "Feature", "properties": {"norad_id": 29904, "name": "FENGYUN 1C DEB", "group": "fengyun-1c-debris", "lat": 66.67877591850215, "lon": -126.21335760341341, "alt_km": 884.052518712334, "timestamp": "2025-12-19T18:58:41.860149+00:00", "meta": {"OBJECT_NAME": "FENGYUN 1C DEB", "OBJECT_ID": "1999-025HA", "EPOCH": "2025-12-19T01:49:52.563648", "MEAN_MOTION": 14.44503411, "ECCENTRICITY": 0.02075136, "INCLINATION": 99.0408, "RA_OF_ASC_NODE": 31.3528, "ARG_OF_PERICENTER": 299.7687, "MEAN_ANOMALY": 58.3003, "EPHEMERIS_TYPE": 0, "CLASSIFICATION_TYPE": "U", "NORAD_CAT_ID": 29904, "ELEMENT_SET_NO": 999, "REV_AT_EPOCH": 99155, "BSTAR": 0.00034164771, "MEAN_MOTION_DOT": 1.473e-05, "MEAN_MOTION_DDOT": 0}, "tle": {"line1": "1 29904U 99025HA  25353.07630282  .00001473  00000+0  34165-3 0  9991", "line2": "2 29904  99.0408  31.3528 0207513 299.7687  58.3003 14.44503411991559"}}, "geometry": {"type": "Point", "coordinates": [-126.21335760341341, 66.67877591850215]}}]}